{
  "type": "FeatureCollection",
  "features": [
    {
      "type": "Feature",
      "properties": {
        "norad_id": 59626,
        "name": "LEGION 2",
        "group": "resource",
        "lat": 14.123188100432648,
        "lon": -120.9575197889414,
        "alt_km": 521.1357154810748,
        "timestamp": "2025-12-08T08:59:00.430058+00:00",
        "meta_object_name": "LEGION 2",
        "meta_object_id": "2024-081B",
        "meta_epoch": "2025-12-07T22:45:10.465920",
        "meta_mean_motion": 15.16420321,
        "meta_eccentricity": 0.00059225,
        "meta_inclination": 97.522,
        "meta_ra_of_asc_node": 56.7146,
        "meta_arg_of_pericenter": 313.9338,
        "meta_mean_anomaly": 46.1406,
        "meta_ephemeris_type": 0,
        "meta_classification_type": "U",
        "meta_norad_cat_id": 59626,
        "meta_element_set_no": 999,
        "meta_rev_at_epoch": 8855,
        "meta_bstar": 0.00037432541,
        "meta_mean_motion_dot": 7.213e-05,
        "meta_mean_motion_ddot": 0,
        "tle_line1": "1 59626U 24081B   25341.94803780  .00007213  00000+0  37433-3 0  9992",
        "tle_line2": "2 59626  97.5220  56.7146 0005922 313.9338  46.1406 15.16420321 88554"
      },
      "geometry": {
        "type": "Point",
        "coordinates": [
          -120.9575197889414,
          14.123188100432648
        ]
      }
    },
    {
      "type": "Feature",
      "properties": {
        "norad_id": 60182,
        "name": "ALOS-4 (DAICHI-4)",
        "group": "resource",
        "lat": 42.49997828660438,
        "lon": 69.95215862844005,
        "alt_km": 626.9656020369275,
        "timestamp": "2025-12-08T08:59:00.430068+00:00",
        "meta_object_name": "ALOS-4 (DAICHI-4)",
        "meta_object_id": "2024-123A",
        "meta_epoch": "2025-12-07T21:25:38.691552",
        "meta_mean_motion": 14.79471569,
        "meta_eccentricity": 0.00013785,
        "meta_inclination": 97.923,
        "meta_ra_of_asc_node": 76.8092,
        "meta_arg_of_pericenter": 99.8522,
        "meta_mean_anomaly": 260.2845,
        "meta_ephemeris_type": 0,
        "meta_classification_type": "U",
        "meta_norad_cat_id": 60182,
        "meta_element_set_no": 999,
        "meta_rev_at_epoch": 7759,
        "meta_bstar": 0.00043996135,
        "meta_mean_motion_dot": 3.236e-05,
        "meta_mean_motion_ddot": 0,
        "tle_line1": "1 60182U 24123A   25341.89280893  .00003236  00000+0  43996-3 0  9998",
        "tle_line2": "2 60182  97.9230  76.8092 0001378  99.8522 260.2845 14.79471569 77593"
      },
      "geometry": {
        "type": "Point",
        "coordinates": [
          69.95215862844005,
          42.49997828660438
        ]
      }
    },
    {
      "type": "Feature",
      "properties": {
        "norad_id": 60452,
        "name": "LEGION 3",
        "group": "resource",
        "lat": -4.041348506646095,
        "lon": 157.58632966513187,
        "alt_km": 509.6954218534456,
        "timestamp": "2025-12-08T08:59:00.430081+00:00",
        "meta_object_name": "LEGION 3",
        "meta_object_id": "2024-146A",
        "meta_epoch": "2025-12-07T21:05:45.121344",
        "meta_mean_motion": 15.1568329,
        "meta_eccentricity": 0.00143165,
        "meta_inclination": 45.0028,
        "meta_ra_of_asc_node": 336.1887,
        "meta_arg_of_pericenter": 172.0469,
        "meta_mean_anomaly": 188.0639,
        "meta_ephemeris_type": 0,
        "meta_classification_type": "U",
        "meta_norad_cat_id": 60452,
        "meta_element_set_no": 999,
        "meta_rev_at_epoch": 7299,
        "meta_bstar": 0.00037333076,
        "meta_mean_motion_dot": 6.985e-05,
        "meta_mean_motion_ddot": 0,
        "tle_line1": "1 60452U 24146A   25341.87899446  .00006985  00000+0  37333-3 0  9993",
        "tle_line2": "2 60452  45.0028 336.1887 0014316 172.0469 188.0639 15.15683290 72990"
      },
      "geometry": {
        "type": "Point",
        "coordinates": [
          157.58632966513187,
          -4.041348506646095
        ]
      }
    },
    {
      "type": "Feature",
      "properties": {
        "norad_id": 60453,
        "name": "LEGION 4",
        "group": "resource",
        "lat": -1.0233485525932366,
        "lon": -113.70662531144961,
        "alt_km": 520.8186016258242,
        "timestamp": "2025-12-08T08:59:00.430092+00:00",
        "meta_object_name": "LEGION 4",
        "meta_object_id": "2024-146B",
        "meta_epoch": "2025-12-07T17:57:01.782720",
        "meta_mean_motion": 15.15747454,
        "meta_eccentricity": 0.00098821,
        "meta_inclination": 45.0389,
        "meta_ra_of_asc_node": 68.6278,
        "meta_arg_of_pericenter": 284.9914,
        "meta_mean_anomaly": 74.9871,
        "meta_ephemeris_type": 0,
        "meta_classification_type": "U",
        "meta_norad_cat_id": 60453,
        "meta_element_set_no": 999,
        "meta_rev_at_epoch": 7182,
        "meta_bstar": 0.00045449653,
        "meta_mean_motion_dot": 8.569e-05,
        "meta_mean_motion_ddot": 0,
        "tle_line1": "1 60453U 24146B   25341.74793730  .00008569  00000+0  45450-3 0  9998",
        "tle_line2": "2 60453  45.0389  68.6278 0009882 284.9914  74.9871 15.15747454 71827"
      },
      "geometry": {
        "type": "Point",
        "coordinates": [
          -113.70662531144961,
          -1.0233485525932366
        ]
      }
    },
    {
      "type": "Feature",
      "properties": {
        "norad_id": 60989,
        "name": "SENTINEL-2C",
        "group": "resource",
        "lat": -30.072960406516376,
        "lon": -130.08898308500008,
        "alt_km": 795.2594260646838,
        "timestamp": "2025-12-08T08:59:00.430102+00:00",
        "meta_object_name": "SENTINEL-2C",
        "meta_object_id": "2024-157A",
        "meta_epoch": "2025-12-07T21:56:00.805344",
        "meta_mean_motion": 14.30814496,
        "meta_eccentricity": 0.00011744,
        "meta_inclination": 98.5687,
        "meta_ra_of_asc_node": 54.4659,
        "meta_arg_of_pericenter": 98.0485,
        "meta_mean_anomaly": 262.0831,
        "meta_ephemeris_type": 0,
        "meta_classification_type": "U",
        "meta_norad_cat_id": 60989,
        "meta_element_set_no": 999,
        "meta_rev_at_epoch": 6563,
        "meta_bstar": 0.00012451038,
        "meta_mean_motion_dot": 2.83e-06,
        "meta_mean_motion_ddot": 0,
        "tle_line1": "1 60989U 24157A   25341.91389821  .00000283  00000+0  12451-3 0  9995",
        "tle_line2": "2 60989  98.5687  54.4659 0001174  98.0485 262.0831 14.30814496 65639"
      },
      "geometry": {
        "type": "Point",
        "coordinates": [
          -130.08898308500008,
          -30.072960406516376
        ]
      }
    },
    {
      "type": "Feature",
      "properties": {
        "norad_id": 61735,
        "name": "IONOSFERA-M 1",
        "group": "resource",
        "lat": -62.53513912989651,
        "lon": 15.037961740220188,
        "alt_km": 824.032459627052,
        "timestamp": "2025-12-08T08:59:00.430112+00:00",
        "meta_object_name": "IONOSFERA-M 1",
        "meta_object_id": "2024-199A",
        "meta_epoch": "2025-12-07T21:42:49.256064",
        "meta_mean_motion": 14.22712347,
        "meta_eccentricity": 0.00011883,
        "meta_inclination": 98.7414,
        "meta_ra_of_asc_node": 211.7899,
        "meta_arg_of_pericenter": 28.5865,
        "meta_mean_anomaly": 331.5378,
        "meta_ephemeris_type": 0,
        "meta_classification_type": "U",
        "meta_norad_cat_id": 61735,
        "meta_element_set_no": 999,
        "meta_rev_at_epoch": 10050,
        "meta_bstar": 8.1865768e-05,
        "meta_mean_motion_dot": 1.39e-06,
        "meta_mean_motion_ddot": 0,
        "tle_line1": "1 61735U 24199A   25341.90473676  .00000139  00000+0  81866-4 0  9999",
        "tle_line2": "2 61735  98.7414 211.7899 0001188  28.5865 331.5378 14.22712347100505"
      },
      "geometry": {
        "type": "Point",
        "coordinates": [
          15.037961740220188,
          -62.53513912989651
        ]
      }
    },
    {
      "type": "Feature",
      "properties": {
        "norad_id": 61736,
        "name": "IONOSFERA-M 2",
        "group": "resource",
        "lat": 64.90598575552346,
        "lon": -167.0116163931549,
        "alt_km": 809.0967996368927,
        "timestamp": "2025-12-08T08:59:00.430122+00:00",
        "meta_object_name": "IONOSFERA-M 2",
        "meta_object_id": "2024-199B",
        "meta_epoch": "2025-12-07T22:32:43.256256",
        "meta_mean_motion": 14.22714468,
        "meta_eccentricity": 0.00015285,
        "meta_inclination": 98.7412,
        "meta_ra_of_asc_node": 211.7369,
        "meta_arg_of_pericenter": 116.3921,
        "meta_mean_anomaly": 243.7413,
        "meta_ephemeris_type": 0,
        "meta_classification_type": "U",
        "meta_norad_cat_id": 61736,
        "meta_element_set_no": 999,
        "meta_rev_at_epoch": 10363,
        "meta_bstar": 7.982525e-05,
        "meta_mean_motion_dot": 1.35e-06,
        "meta_mean_motion_ddot": 0,
        "tle_line1": "1 61736U 24199B   25341.93938954  .00000135  00000+0  79825-4 0  9996",
        "tle_line2": "2 61736  98.7412 211.7369 0001528 116.3921 243.7413 14.22714468103630"
      },
      "geometry": {
        "type": "Point",
        "coordinates": [
          -167.0116163931549,
          64.90598575552346
        ]
      }
    }
  ]
}